[{"OBJECT_NAME":"STARLINK-4259","OBJECT_ID":"2022-076B","EPOCH":"2026-03-09T10:04:33.254112","MEAN_MOTION":15.08837383,"ECCENTRICITY":0.00012683,"INCLINATION":53.2166,"RA_OF_ASC_NODE":105.3331,"ARG_OF_PERICENTER":85.0926,"MEAN_ANOMALY":275.0211,"EPHEMERIS_TYPE":0,"CLASSIFICATION_TYPE":"U","NORAD_CAT_ID":52987,"ELEMENT_SET_NO":999,"REV_AT_EPOCH":20266,"BSTAR":6.4868045e-5,"MEAN_MOTION_DOT":7.45e-6,"MEAN_MOTION_DDOT":0},{"OBJECT_NAME":"YUNYAO-1 45","OBJECT_ID":"2025-059C","EPOCH":"2026-03-09T23:25:14.115648","MEAN_MOTION":15.10348188,"ECCENTRICITY":0.00171316,"INCLINATION":97.6099,"RA_OF_ASC_NODE":251.0366,"ARG_OF_PERICENTER":134.7318,"MEAN_ANOMALY":225.5309,"EPHEMERIS_TYPE":0,"CLASSIFICATION_TYPE":"U","NORAD_CAT_ID":63346,"ELEMENT_SET_NO":999,"REV_AT_EPOCH":5332,"BSTAR":0.00033512738,"MEAN_MOTION_DOT":5.451e-5,"MEAN_MOTION_DDOT":0}]
